392P/LINEAR,e,4.9319,24.8863,71.8703,6.140602,0.0647721,0.68324393,68.5193,02/23.0/2023,2000,g 14.5,4.0
# From MPEC 2021-BE3
393P/Spacewatch-Hill,e,16.7876,36.3921,328.8686,4.793003,0.0939274,0.12052496,113.8031,02/23.0/2023,2000,g 11.0,4.0
# From MPEC 2020-KB7
394P/PANSTARRS,e,8.5297,98.1263,54.4486,4.330051,0.1093867,0.36744257,129.2424,02/23.0/2023,2000,g 16.0,2.4
# From MPEC 2023-C45
395P/Catalina-NEAT,e,3.3345,222.4392,91.9757,6.737861,0.0563535,0.39583229,23.2027,02/23.0/2023,2000,g 10.0,4.0
# From MPEC 2020-KB7
396P/,e,5.4371,136.6492,8.3962,6.805533,0.0555151,0.41581406,70.8126,02/23.0/2023,2000,g 12.0,4.0
# From MPEC 2022-OB6
397P/Lemmon,e,10.9294,8.1951,14.5306,3.830101,0.1314888,0.40528784,128.6110,02/23.0/2023,2000,g 12.0,4.0
# From MPEC 2021-L04
398P/Boattini,e,11.0172,127.4378,320.2050,3.126516,0.1782843,0.58310427,140.4943,02/23.0/2023,2000,g 15.5,4.0
# From MPEC 2022-M88
399P/PANSTARRS,e,13.3217,207.1311,214.3515,3.792082,0.1334712,0.44730254,85.5786,02/23.0/2023,2000,g 14.0,4.0
# From MPEC 2022-ED3
400P/PANSTARRS,e,10.9301,176.3910,238.8292,3.561614,0.1466337,0.40958687,108.8874,02/23.0/2023,2000,g 15.5,2.8
# From MPEC 2022-K19
401P/McNaught,e,12.8026,359.8820,309.4344,5.777139,0.0709798,0.57945268,83.3556,02/23.0/2023,2000,g 12.5,4.0
# From MPEC 2023-D41
402P/LINEAR,e,30.8429,123.0905,326.7613,7.025770,0.0529253,0.43948428,23.0332,02/23.0/2023,2000,g  8.0,4.0
# From MPEC 2021-J28
403P/Catalina,e,12.3209,163.8090,277.6389,5.428713,0.0779218,0.50395190,69.3016,02/23.0/2023,2000,g 12.0,4.0
# From MPEC 2023-D41
404P/Bressi,e,9.7664,260.1292,168.8775,4.753227,0.0951089,0.13043302,336.1527,02/23.0/2023,2000,g 10.0,4.0
# From MPEC 2021-L04
405P/Lemmon,e,9.3656,3.3098,112.1880,3.605958,0.1439372,0.68935686,113.8044,02/23.0/2023,2000,g 17.5,4.0
# From MPEC 2021-F20
406P/Gibbs,e,1.2129,11.4934,352.4294,3.577039,0.1456862,0.54197997,129.6691,02/23.0/2023,2000,g 17.0,4.0
# From MPEC 2022-YN2
407P/PANSTARRS-Fuls,e,4.8740,80.3731,93.5468,3.477441,0.1519898,0.37959617,170.4155,02/23.0/2023,2000,g 14.0,4.0
# From MPEC 2023-D41
408P/Novichonok-Gerke,e,19.3569,189.4416,226.4871,4.742602,0.0954287,0.26883857,13.4342,02/23.0/2023,2000,g 11.0,4.0
# From MPEC 2022-ED3
409P/LONEOS-Hill,e,17.1219,143.6635,15.0908,6.038087,0.0664286,0.70963416,50.2209,02/23.0/2023,2000,g 14.0,4.0
# From MPEC 2022-M21
410P/NEAT-LINEAR,e,9.3919,139.9747,313.1077,6.641965,0.0575783,0.51121218,35.0804,02/23.0/2023,2000,g 12.5,4.0
# From MPEC 2021-J28
411P/Christensen,e,12.3833,77.6531,46.5975,5.812817,0.0703273,0.58091887,53.4249,02/23.0/2023,2000,g 13.5,4.0
# From MPEC 2021-F20
412P/WISE,e,8.9314,0.8446,155.9388,3.110153,0.1796931,0.47910244,145.5784,02/23.0/2023,2000,g 17.0,4.0
# From MPEC 2022-OB6
413P/Larson,e,15.9863,38.9596,186.4165,3.718921,0.1374291,0.42299625,80.0243,02/23.0/2023,2000,g 14.0,4.0
# From MPEC 2021-BE3
414P/STEREO,e,23.3964,257.8005,210.6982,2.793372,0.2111110,0.81178506,160.1624,02/23.0/2023,2000,g 19.0,4.0
# From MPEC 2022-J42
415P/Tenagra,e,31.7919,160.2886,346.0121,4.112115,0.1181969,0.19470221,87.3632,02/23.0/2023,2000,g 12.0,4.0
# From MPEC 2021-L04
416P/Scotti,e,3.3612,355.8008,134.4200,4.009724,0.1227531,0.45443948,90.5519,02/23.0/2023,2000,g 15.5,4.0
# From MPEC 2021-W31
417P/NEOWISE,e,8.1283,110.7326,129.7129,3.340831,0.1614070,0.55804753,108.2247,02/23.0/2023,2000,g 16.5,4.0
# From MPEC 2022-TA0
418P/LINEAR,e,5.7883,277.5109,307.4214,5.092947,0.0857532,0.66482313,42.3060,02/23.0/2023,2000,g 13.0,4.0
# From MPEC 2022-ST7
419P/PANSTARRS,e,2.8030,40.3876,187.6163,3.521839,0.1491248,0.27742584,72.0611,02/23.0/2023,2000,g 12.5,4.0
# From MPEC 2022-OB6
420P/Hill,e,14.4991,173.9385,156.8974,5.535458,0.0756787,0.49668681,20.9793,02/23.0/2023,2000,g 11.5,4.0
# From MPEC 2021-W31
421P/McNaught,e,10.0769,55.3389,259.8770,5.076373,0.0861735,0.67520979,65.3513,02/23.0/2023,2000,g 14.0,4.0
# From MPEC 2022-X67
422P/Christensen,e,39.5816,36.0258,305.0193,6.302333,0.0622948,0.50755064,25.2875,02/23.0/2023,2000,g 11.0,4.0
# From MPEC 2023-A50
423P/Lemmon,e,8.3463,33.2958,80.3167,6.170554,0.0643010,0.12170176,33.5818,02/23.0/2023,2000,g  8.0,4.0
# From MPEC 2022-CN4
424P/LaSagra,e,8.6849,51.1665,312.5258,4.416698,0.1061836,0.69126889,50.8995,02/23.0/2023,2000,g 17.0,4.0
# From MPEC 2023-BF4
425P/Kowalski,e,16.4206,210.0759,200.8137,6.338307,0.0617652,0.54388898,32.1354,02/23.0/2023,2000,g 12.0,4.0
# From MPEC 2022-P82
426P/PANSTARRS,e,17.7653,280.4933,118.9039,3.189023,0.1730684,0.16167172,325.0426,02/23.0/2023,2000,g 13.5,4.0
# From MPEC 2022-J42
428P/Gibbs,e,8.5117,299.3406,36.8634,3.485716,0.1514489,0.51927467,98.3490,02/23.0/2023,2000,g 15.0,4.0
# From MPEC 2022-H04
429P/LINEAR-Hill,e,7.5205,322.0740,75.5796,3.552519,0.1471972,0.49142120,61.3475,02/23.0/2023,2000,g 15.5,4.0
# From MPEC 2022-L66
430P/Scotti,e,4.4753,54.6736,94.4577,3.105364,0.1801089,0.49956088,80.6589,02/23.0/2023,2000,g 16.5,4.0
# From MPEC 2022-ED3
431P/Scotti,e,22.3925,202.8423,199.8996,3.473923,0.1522207,0.47779317,57.0145,02/23.0/2023,2000,g 14.0,4.0
# From MPEC 2021-U31
432P/PANSTARRS,e,10.0687,239.1400,105.2706,3.035690,0.1863451,0.24181492,100.9348,02/23.0/2023,2000,g 17.0,4.0
# From MPEC 2022-OB6
434P/Tenagra,e,6.3377,288.9635,128.1468,4.130688,0.1174006,0.27466041,56.9080,02/23.0/2023,2000,g 13.0,4.0
# From MPEC 2021-W31
435P/PANSTARRS,e,18.8794,98.5491,244.2001,3.019102,0.1878829,0.31852182,108.1310,02/23.0/2023,2000,g 17.0,4.0
# From MPEC 2022-X67
436P/Garradd,e,20.2070,87.1865,282.6314,5.931233,0.0682318,0.66981904,30.1221,02/23.0/2023,2000,g 14.5,4.0
# From MPEC 2023-B57
437P/Lemmon-PANSTARRS,e,3.6889,245.8611,206.7575,4.561528,0.1011669,0.25458068,19.0549,02/23.0/2023,2000,g 13.0,4.0
# From MPEC 2021-W47
438P/Christensen,e,8.2839,260.1405,59.0115,3.848763,0.1305336,0.41530369,137.5686,02/23.0/2023,2000,g 14.5,4.0
# From MPEC 2022-C56
439P/LINEAR,e,7.1144,56.4042,342.0550,3.489374,0.1512108,0.46961428,82.5262,02/23.0/2023,2000,g 13.5,4.0
# From MPEC 2022-WQ9
440P/Kobayashi,e,12.3389,328.8744,183.3012,8.581047,0.0392097,0.76042686,12.9427,02/23.0/2023,2000,g 15.5,4.0
# From MPEC 2022-X67
441P/PANSTARRS,e,2.5745,143.6150,178.8027,4.134492,0.1172386,0.19539925,251.1140,02/23.0/2023,2000,g 13.5,4.0
# From MPEC 2022-YN2
442P/McNaught,e,6.0590,32.0155,310.9142,4.977164,0.0887628,0.53347639,16.6905,02/23.0/2023,2000,g 13.5,4.0
# From MPEC 2022-OB6
443P/PANSTARRS-Christensen,e,19.8876,108.9430,145.1115,4.126955,0.1175600,0.28368848,15.9706,02/23.0/2023,2000,g 13.5,4.0
# From MPEC 2022-YN2
444P/WISE-PANSTARRS,e,22.1236,89.3886,170.9395,3.429533,0.1551857,0.57038570,35.3157,02/23.0/2023,2000,g 17.0,4.0
# From MPEC 2022-YB4
445P/Lemmon-PANSTARRS,e,1.0886,126.5820,213.6513,4.060493,0.1204581,0.41446728,22.8120,02/23.0/2023,2000,g 15.0,4.0
# From MPEC 2022-WQ9
446P/McNaught,e,16.6132,336.4015,344.7192,4.571190,0.1008463,0.64705088,27.1703,02/23.0/2023,2000,g 16.5,4.0
# From MPEC 2022-YB4
447P/Sheppard-Tholen,e,7.4339,302.6680,97.6870,5.640548,0.0735736,0.17969858,13.8185,02/23.0/2023,2000,g 12.0,4.0
# From MPEC 2023-A50
448P/PANSTARRS,e,12.1515,161.7542,218.7251,3.634649,0.1422363,0.41891857,24.1032,02/23.0/2023,2000,g 16.0,4.0
# From MPEC 2022-UE6
449P/Leonard,e,15.4655,242.5313,176.6897,3.600161,0.1442850,0.47963270,118.4660,02/23.0/2023,2000,g 16.0,4.0
# From MPEC 2022-TA6
450P/LONEOS,e,10.5518,124.8554,21.1009,7.972825,0.0437810,0.31051356,297.6429,02/23.0/2023,2000,g  6.5,4.0
# From MPEC 2023-D41
451P/Christensen,e,26.4824,300.9119,186.6967,6.338723,0.0617592,0.55850280,5.4019,02/23.0/2023,2000,g 13.5,4.0
# From MPEC 2023-C45
452P/Sheppard-Jewitt,e,6.4225,123.6996,37.0519,7.294665,0.0500260,0.42722886,356.9146,02/23.0/2023,2000,g  9.0,4.0
# From MPEC 2023-D41
453P/WISE-Lemmon,e,27.0680,42.8977,70.8229,5.457190,0.0773126,0.58247593,359.3804,02/23.0/2023,2000,g 14.0,4.0
# From MPEC 2023-CD7
454P/PANSTARRS,e,19.8124,54.5877,19.9993,4.205395,0.1142862,0.36135088,24.2271,02/23.0/2023,2000,g 14.0,4.0
# From MPEC 2022-Y14
455P/PANSTARRS,e,14.1378,146.2053,237.5660,3.155274,0.1758524,0.30538797,359.5655,02/23.0/2023,2000,g 17.0,4.0
# From MPEC 2023-BD5
456P/PANSTARRS,e,16.9595,243.2061,234.4111,3.166343,0.1749311,0.11823547,222.1991,02/23.0/2023,2000,g 13.5,4.0
# From MPC107687
1I/`Oumuamua,h,09/09.4886/2017,122.6778,24.5997,241.6845,1.199252,0.255240,2000,23.0,2.0
# From MPEC 2020-K19
2I/Borisov,h,12/08.5549/2019,44.0527,308.1480,209.1251,3.356636,2.006548,2000,11.0,4.0
